{"fetched_at":"2026-07-19T17:31:36.159Z","source":"https://celestrak.org/NORAD/elements/gp.php?NAME=HULIANWANG&FORMAT=JSON","constellation":"guowang","records":[{"OBJECT_NAME":"HULIANWANG DIGUI-156","OBJECT_ID":"2026-047B","EPOCH":"2026-07-19T05:56:02.246208","CLASSIFICATION_TYPE":"U","MEAN_MOTION":13.29326379,"ECCENTRICITY":0.00008935,"INCLINATION":50.0044,"RA_OF_ASC_NODE":301.329,"ARG_OF_PERICENTER":217.119,"MEAN_ANOMALY":142.962,"EPHEMERIS_TYPE":0,"NORAD_CAT_ID":68130,"ELEMENT_SET_NO":999,"REV_AT_EPOCH":1732,"BSTAR":0.000076809516,"MEAN_MOTION_DOT":-8.8e-7,"MEAN_MOTION_DDOT":0},{"OBJECT_NAME":"HULIANWANG DIGUI-157","OBJECT_ID":"2026-047C","EPOCH":"2026-07-19T07:32:17.566944","CLASSIFICATION_TYPE":"U","MEAN_MOTION":13.29325759,"ECCENTRICITY":0.00009141,"INCLINATION":50.0015,"RA_OF_ASC_NODE":300.9859,"ARG_OF_PERICENTER":214.1494,"MEAN_ANOMALY":145.9319,"EPHEMERIS_TYPE":0,"NORAD_CAT_ID":68131,"ELEMENT_SET_NO":999,"REV_AT_EPOCH":1734,"BSTAR":0.000072117188,"MEAN_MOTION_DOT":-9.1e-7,"MEAN_MOTION_DDOT":0},{"OBJECT_NAME":"HULIANWANG DIGUI-158","OBJECT_ID":"2026-047D","EPOCH":"2026-07-19T07:20:13.549632","CLASSIFICATION_TYPE":"U","MEAN_MOTION":13.29324528,"ECCENTRICITY":0.0000998,"INCLINATION":50.0061,"RA_OF_ASC_NODE":300.9918,"ARG_OF_PERICENTER":212.3706,"MEAN_ANOMALY":147.7105,"EPHEMERIS_TYPE":0,"NORAD_CAT_ID":68132,"ELEMENT_SET_NO":999,"REV_AT_EPOCH":1733,"BSTAR":0.000071274271,"MEAN_MOTION_DOT":-9.1e-7,"MEAN_MOTION_DDOT":0},{"OBJECT_NAME":"HULIANWANG DIGUI-159","OBJECT_ID":"2026-047E","EPOCH":"2026-07-19T07:08:12.905376","CLASSIFICATION_TYPE":"U","MEAN_MOTION":13.29326233,"ECCENTRICITY":0.00010395,"INCLINATION":50.0021,"RA_OF_ASC_NODE":300.9155,"ARG_OF_PERICENTER":209.8572,"MEAN_ANOMALY":150.2241,"EPHEMERIS_TYPE":0,"NORAD_CAT_ID":68133,"ELEMENT_SET_NO":999,"REV_AT_EPOCH":1734,"BSTAR":0.000054172679,"MEAN_MOTION_DOT":-9.9e-7,"MEAN_MOTION_DDOT":0},{"OBJECT_NAME":"HULIANWANG DIGUI-160","OBJECT_ID":"2026-047F","EPOCH":"2026-07-19T06:44:02.465376","CLASSIFICATION_TYPE":"U","MEAN_MOTION":13.29325999,"ECCENTRICITY":0.0001128,"INCLINATION":50.0089,"RA_OF_ASC_NODE":300.8906,"ARG_OF_PERICENTER":197.8452,"MEAN_ANOMALY":162.2381,"EPHEMERIS_TYPE":0,"NORAD_CAT_ID":68134,"ELEMENT_SET_NO":999,"REV_AT_EPOCH":1733,"BSTAR":0.000071928926,"MEAN_MOTION_DOT":-9.1e-7,"MEAN_MOTION_DDOT":0},{"OBJECT_NAME":"HULIANWANG DIGUI-161","OBJECT_ID":"2026-047G","EPOCH":"2026-07-18T23:43:02.318592","CLASSIFICATION_TYPE":"U","MEAN_MOTION":13.29325138,"ECCENTRICITY":0.00009744,"INCLINATION":50.0105,"RA_OF_ASC_NODE":302.033,"ARG_OF_PERICENTER":209.2587,"MEAN_ANOMALY":150.8231,"EPHEMERIS_TYPE":0,"NORAD_CAT_ID":68135,"ELEMENT_SET_NO":999,"REV_AT_EPOCH":1730,"BSTAR":0.000060610441,"MEAN_MOTION_DOT":-9.6e-7,"MEAN_MOTION_DDOT":0},{"OBJECT_NAME":"HULIANWANG DIGUI-162","OBJECT_ID":"2026-047H","EPOCH":"2026-07-19T06:32:21.164352","CLASSIFICATION_TYPE":"U","MEAN_MOTION":13.29324355,"ECCENTRICITY":0.00009439,"INCLINATION":50.0075,"RA_OF_ASC_NODE":300.8383,"ARG_OF_PERICENTER":218.1163,"MEAN_ANOMALY":141.9643,"EPHEMERIS_TYPE":0,"NORAD_CAT_ID":68136,"ELEMENT_SET_NO":999,"REV_AT_EPOCH":1733,"BSTAR":0.000074765714,"MEAN_MOTION_DOT":-8.9e-7,"MEAN_MOTION_DDOT":0},{"OBJECT_NAME":"HULIANWANG DIGUI-163","OBJECT_ID":"2026-047J","EPOCH":"2026-07-19T06:20:01.558752","CLASSIFICATION_TYPE":"U","MEAN_MOTION":13.29325756,"ECCENTRICITY":0.00008714,"INCLINATION":50.0077,"RA_OF_ASC_NODE":300.797,"ARG_OF_PERICENTER":216.2623,"MEAN_ANOMALY":143.819,"EPHEMERIS_TYPE":0,"NORAD_CAT_ID":68137,"ELEMENT_SET_NO":999,"REV_AT_EPOCH":1734,"BSTAR":0.000076774771,"MEAN_MOTION_DOT":-8.8e-7,"MEAN_MOTION_DDOT":0},{"OBJECT_NAME":"HULIANWANG DIGUI-164","OBJECT_ID":"2026-076A","EPOCH":"2026-07-19T05:37:55.976160","CLASSIFICATION_TYPE":"U","MEAN_MOTION":13.24410554,"ECCENTRICITY":0.0001964,"INCLINATION":86.4946,"RA_OF_ASC_NODE":33.0531,"ARG_OF_PERICENTER":78.4571,"MEAN_ANOMALY":281.6783,"EPHEMERIS_TYPE":0,"NORAD_CAT_ID":68656,"ELEMENT_SET_NO":999,"REV_AT_EPOCH":1361,"BSTAR":-0.000033494039,"MEAN_MOTION_DOT":0,"MEAN_MOTION_DDOT":0},{"OBJECT_NAME":"HULIANWANG DIGUI-165","OBJECT_ID":"2026-076B","EPOCH":"2026-07-19T05:27:03.644928","CLASSIFICATION_TYPE":"U","MEAN_MOTION":13.24413281,"ECCENTRICITY":0.00021257,"INCLINATION":86.4964,"RA_OF_ASC_NODE":33.0733,"ARG_OF_PERICENTER":83.3264,"MEAN_ANOMALY":276.8112,"EPHEMERIS_TYPE":0,"NORAD_CAT_ID":68657,"ELEMENT_SET_NO":999,"REV_AT_EPOCH":1361,"BSTAR":-0.000048636144,"MEAN_MOTION_DOT":-6e-8,"MEAN_MOTION_DDOT":0},{"OBJECT_NAME":"HULIANWANG DIGUI-166","OBJECT_ID":"2026-076C","EPOCH":"2026-07-19T07:05:03.996096","CLASSIFICATION_TYPE":"U","MEAN_MOTION":13.24411336,"ECCENTRICITY":0.00020958,"INCLINATION":86.4906,"RA_OF_ASC_NODE":32.9795,"ARG_OF_PERICENTER":83.3927,"MEAN_ANOMALY":276.7445,"EPHEMERIS_TYPE":0,"NORAD_CAT_ID":68658,"ELEMENT_SET_NO":999,"REV_AT_EPOCH":1362,"BSTAR":-0.000054036652,"MEAN_MOTION_DOT":-9e-8,"MEAN_MOTION_DDOT":0},{"OBJECT_NAME":"HULIANWANG DIGUI-167","OBJECT_ID":"2026-076D","EPOCH":"2026-07-19T05:05:17.727936","CLASSIFICATION_TYPE":"U","MEAN_MOTION":13.24413311,"ECCENTRICITY":0.00021042,"INCLINATION":86.496,"RA_OF_ASC_NODE":33.0629,"ARG_OF_PERICENTER":82.985,"MEAN_ANOMALY":277.1523,"EPHEMERIS_TYPE":0,"NORAD_CAT_ID":68659,"ELEMENT_SET_NO":999,"REV_AT_EPOCH":1361,"BSTAR":-0.00010465424,"MEAN_MOTION_DOT":-3e-7,"MEAN_MOTION_DDOT":0},{"OBJECT_NAME":"HULIANWANG DIGUI-168","OBJECT_ID":"2026-076E","EPOCH":"2026-07-19T06:43:13.133568","CLASSIFICATION_TYPE":"U","MEAN_MOTION":13.24411256,"ECCENTRICITY":0.00021178,"INCLINATION":86.4942,"RA_OF_ASC_NODE":33.0125,"ARG_OF_PERICENTER":83.2553,"MEAN_ANOMALY":276.8822,"EPHEMERIS_TYPE":0,"NORAD_CAT_ID":68660,"ELEMENT_SET_NO":999,"REV_AT_EPOCH":1361,"BSTAR":-0.00021968062,"MEAN_MOTION_DOT":-8e-7,"MEAN_MOTION_DDOT":0}]}
