HULIANWANG DIGUI-156    
1 68130U 26047B   26200.24724822 -.00000088  00000+0  76810-4 0  9990
2 68130  50.0044 301.3290 0000893 217.1190 142.9620 13.29326379 17324
HULIANWANG DIGUI-157    
1 68131U 26047C   26200.31409221 -.00000091  00000+0  72117-4 0  9992
2 68131  50.0015 300.9859 0000914 214.1494 145.9319 13.29325759 17348
HULIANWANG DIGUI-158    
1 68132U 26047D   26200.30571238 -.00000091  00000+0  71274-4 0  9993
2 68132  50.0061 300.9918 0000998 212.3706 147.7105 13.29324528 17339
HULIANWANG DIGUI-159    
1 68133U 26047E   26200.29737159 -.00000099  00000+0  54173-4 0  9995
2 68133  50.0021 300.9155 0001039 209.8572 150.2241 13.29326233 17344
HULIANWANG DIGUI-160    
1 68134U 26047F   26200.28058409 -.00000091  00000+0  71929-4 0  9999
2 68134  50.0089 300.8906 0001128 197.8452 162.2381 13.29325999 17339
HULIANWANG DIGUI-161    
1 68135U 26047G   26199.98822128 -.00000096  00000+0  60610-4 0  9991
2 68135  50.0105 302.0330 0000974 209.2587 150.8231 13.29325138 17308
HULIANWANG DIGUI-162    
1 68136U 26047H   26200.27246718 -.00000089  00000+0  74766-4 0  9991
2 68136  50.0075 300.8383 0000943 218.1163 141.9643 13.29324355 17335
HULIANWANG DIGUI-163    
1 68137U 26047J   26200.26390693 -.00000088  00000+0  76775-4 0  9994
2 68137  50.0077 300.7970 0000871 216.2623 143.8190 13.29325756 17344
HULIANWANG DIGUI-164    
1 68656U 26076A   26200.23467565  .00000000  00000+0 -33494-4 0  9997
2 68656  86.4946  33.0531 0001964  78.4571 281.6783 13.24410554 13612
HULIANWANG DIGUI-165    
1 68657U 26076B   26200.22712552 -.00000006  00000+0 -48636-4 0  9997
2 68657  86.4964  33.0733 0002125  83.3264 276.8112 13.24413281 13613
HULIANWANG DIGUI-166    
1 68658U 26076C   26200.29518514 -.00000009  00000+0 -54037-4 0  9992
2 68658  86.4906  32.9795 0002095  83.3927 276.7445 13.24411336 13626
HULIANWANG DIGUI-167    
1 68659U 26076D   26200.21201074 -.00000030  00000+0 -10465-3 0  9995
2 68659  86.4960  33.0629 0002104  82.9850 277.1523 13.24413311 13612
HULIANWANG DIGUI-168    
1 68660U 26076E   26200.28001312 -.00000080  00000+0 -21968-3 0  9992
2 68660  86.4942  33.0125 0002117  83.2553 276.8822 13.24411256 13617
